CCSDS_OMM_VERS = 2.0
CREATION_DATE  = 
ORIGINATOR     = 

OBJECT_NAME    = STARLINK-35671
OBJECT_ID      = 2025-257N
CENTER_NAME    = EARTH
REF_FRAME      = TEME
TIME_SYSTEM    = UTC
MEAN_ELEMENT_THEORY = SGP/SGP4

EPOCH          = 2025-11-30T12:00:04.000320
MEAN_MOTION    = 15.49298366
ECCENTRICITY   = .0001207
INCLINATION    = 53.1594
RA_OF_ASC_NODE = 322.3354
ARG_OF_PERICENTER = 83.7090
MEAN_ANOMALY   = 235.3935

EPHEMERIS_TYPE = 0
CLASSIFICATION_TYPE = U
NORAD_CAT_ID   = 66392
ELEMENT_SET_NO = 999
REV_AT_EPOCH   = 452
BSTAR          = -.33965E-3
MEAN_MOTION_DOT = -.19284E-3
MEAN_MOTION_DDOT = 0

CCSDS_OMM_VERS = 2.0
CREATION_DATE  = 
ORIGINATOR     = 

OBJECT_NAME    = STARLINK-35652
OBJECT_ID      = 2025-257P
CENTER_NAME    = EARTH
REF_FRAME      = TEME
TIME_SYSTEM    = UTC
MEAN_ELEMENT_THEORY = SGP/SGP4

EPOCH          = 2025-11-30T12:00:04.000320
MEAN_MOTION    = 15.49240147
ECCENTRICITY   = .0001669
INCLINATION    = 53.1594
RA_OF_ASC_NODE = 322.3389
ARG_OF_PERICENTER = 83.0443
MEAN_ANOMALY   = 234.1508

EPHEMERIS_TYPE = 0
CLASSIFICATION_TYPE = U
NORAD_CAT_ID   = 66393
ELEMENT_SET_NO = 999
REV_AT_EPOCH   = 452
BSTAR          = .15397E-2
MEAN_MOTION_DOT = .85925E-3
MEAN_MOTION_DDOT = 0

CCSDS_OMM_VERS = 2.0
CREATION_DATE  = 
ORIGINATOR     = 

OBJECT_NAME    = STARLINK-35672
OBJECT_ID      = 2025-257Q
CENTER_NAME    = EARTH
REF_FRAME      = TEME
TIME_SYSTEM    = UTC
MEAN_ELEMENT_THEORY = SGP/SGP4

EPOCH          = 2025-11-30T12:00:04.000320
MEAN_MOTION    = 15.49235070
ECCENTRICITY   = .0001602
INCLINATION    = 53.1594
RA_OF_ASC_NODE = 322.3303
ARG_OF_PERICENTER = 82.7451
MEAN_ANOMALY   = 238.2936

EPHEMERIS_TYPE = 0
CLASSIFICATION_TYPE = U
NORAD_CAT_ID   = 66394
ELEMENT_SET_NO = 999
REV_AT_EPOCH   = 452
BSTAR          = .17362E-2
MEAN_MOTION_DOT = .97069E-3
MEAN_MOTION_DDOT = 0

CCSDS_OMM_VERS = 2.0
CREATION_DATE  = 
ORIGINATOR     = 

OBJECT_NAME    = STARLINK-35681
OBJECT_ID      = 2025-257R
CENTER_NAME    = EARTH
REF_FRAME      = TEME
TIME_SYSTEM    = UTC
MEAN_ELEMENT_THEORY = SGP/SGP4

EPOCH          = 2025-11-30T12:00:04.000320
MEAN_MOTION    = 15.49235730
ECCENTRICITY   = .0001684
INCLINATION    = 53.1595
RA_OF_ASC_NODE = 322.3270
ARG_OF_PERICENTER = 81.6408
MEAN_ANOMALY   = 241.3076

EPHEMERIS_TYPE = 0
CLASSIFICATION_TYPE = U
NORAD_CAT_ID   = 66395
ELEMENT_SET_NO = 999
REV_AT_EPOCH   = 436
BSTAR          = .16873E-2
MEAN_MOTION_DOT = .9429E-3
MEAN_MOTION_DDOT = 0

CCSDS_OMM_VERS = 2.0
CREATION_DATE  = 
ORIGINATOR     = 

OBJECT_NAME    = STARLINK-35669
OBJECT_ID      = 2025-257S
CENTER_NAME    = EARTH
REF_FRAME      = TEME
TIME_SYSTEM    = UTC
MEAN_ELEMENT_THEORY = SGP/SGP4

EPOCH          = 2025-11-30T12:00:04.000320
MEAN_MOTION    = 15.49244081
ECCENTRICITY   = .000154
INCLINATION    = 53.1594
RA_OF_ASC_NODE = 322.3223
ARG_OF_PERICENTER = 81.9676
MEAN_ANOMALY   = 242.8912

EPHEMERIS_TYPE = 0
CLASSIFICATION_TYPE = U
NORAD_CAT_ID   = 66396
ELEMENT_SET_NO = 999
REV_AT_EPOCH   = 452
BSTAR          = .14775E-2
MEAN_MOTION_DOT = .82405E-3
MEAN_MOTION_DDOT = 0

CCSDS_OMM_VERS = 2.0
CREATION_DATE  = 
ORIGINATOR     = 

OBJECT_NAME    = STARLINK-35510
OBJECT_ID      = 2025-257T
CENTER_NAME    = EARTH
REF_FRAME      = TEME
TIME_SYSTEM    = UTC
MEAN_ELEMENT_THEORY = SGP/SGP4

EPOCH          = 2025-11-30T12:00:04.000320
MEAN_MOTION    = 15.49311644
ECCENTRICITY   = .0000994
INCLINATION    = 53.1594
RA_OF_ASC_NODE = 322.3189
ARG_OF_PERICENTER = 77.8102
MEAN_ANOMALY   = 248.9427

EPHEMERIS_TYPE = 0
CLASSIFICATION_TYPE = U
NORAD_CAT_ID   = 66397
ELEMENT_SET_NO = 999
REV_AT_EPOCH   = 452
BSTAR          = -.60014E-3
MEAN_MOTION_DOT = -.33685E-3
MEAN_MOTION_DDOT = 0

CCSDS_OMM_VERS = 2.0
CREATION_DATE  = 
ORIGINATOR     = 

OBJECT_NAME    = STARLINK-35642
OBJECT_ID      = 2025-257U
CENTER_NAME    = EARTH
REF_FRAME      = TEME
TIME_SYSTEM    = UTC
MEAN_ELEMENT_THEORY = SGP/SGP4

EPOCH          = 2025-11-30T12:00:04.000320
MEAN_MOTION    = 15.49293871
ECCENTRICITY   = .0001529
INCLINATION    = 53.1595
RA_OF_ASC_NODE = 322.3143
ARG_OF_PERICENTER = 80.4258
MEAN_ANOMALY   = 248.2597

EPHEMERIS_TYPE = 0
CLASSIFICATION_TYPE = U
NORAD_CAT_ID   = 66398
ELEMENT_SET_NO = 999
REV_AT_EPOCH   = 453
BSTAR          = -.14353E-3
MEAN_MOTION_DOT = -.8418E-4
MEAN_MOTION_DDOT = 0

CCSDS_OMM_VERS = 2.0
CREATION_DATE  = 
ORIGINATOR     = 

OBJECT_NAME    = STARLINK-35657
OBJECT_ID      = 2025-257V
CENTER_NAME    = EARTH
REF_FRAME      = TEME
TIME_SYSTEM    = UTC
MEAN_ELEMENT_THEORY = SGP/SGP4

EPOCH          = 2025-11-30T12:00:04.000320
MEAN_MOTION    = 15.49235473
ECCENTRICITY   = .0001703
INCLINATION    = 53.1595
RA_OF_ASC_NODE = 322.3105
ARG_OF_PERICENTER = 79.0415
MEAN_ANOMALY   = 251.5747

EPHEMERIS_TYPE = 0
CLASSIFICATION_TYPE = U
NORAD_CAT_ID   = 66399
ELEMENT_SET_NO = 999
REV_AT_EPOCH   = 453
BSTAR          = .19212E-2
MEAN_MOTION_DOT = .107605E-2
MEAN_MOTION_DDOT = 0

CCSDS_OMM_VERS = 2.0
CREATION_DATE  = 
ORIGINATOR     = 

OBJECT_NAME    = STARLINK-35667
OBJECT_ID      = 2025-257W
CENTER_NAME    = EARTH
REF_FRAME      = TEME
TIME_SYSTEM    = UTC
MEAN_ELEMENT_THEORY = SGP/SGP4

EPOCH          = 2025-11-30T12:00:04.000320
MEAN_MOTION    = 15.49236205
ECCENTRICITY   = .0001695
INCLINATION    = 53.1594
RA_OF_ASC_NODE = 322.3022
ARG_OF_PERICENTER = 80.9573
MEAN_ANOMALY   = 253.4970

EPHEMERIS_TYPE = 0
CLASSIFICATION_TYPE = U
NORAD_CAT_ID   = 66400
ELEMENT_SET_NO = 999
REV_AT_EPOCH   = 453
BSTAR          = .17018E-2
MEAN_MOTION_DOT = .95117E-3
MEAN_MOTION_DDOT = 0

CCSDS_OMM_VERS = 2.0
CREATION_DATE  = 
ORIGINATOR     = 

OBJECT_NAME    = STARLINK-35668
OBJECT_ID      = 2025-257X
CENTER_NAME    = EARTH
REF_FRAME      = TEME
TIME_SYSTEM    = UTC
MEAN_ELEMENT_THEORY = SGP/SGP4

EPOCH          = 2025-11-30T12:00:04.000320
MEAN_MOTION    = 15.49229248
ECCENTRICITY   = .0001582
INCLINATION    = 53.1595
RA_OF_ASC_NODE = 322.2980
ARG_OF_PERICENTER = 81.0602
MEAN_ANOMALY   = 255.3077

EPHEMERIS_TYPE = 0
CLASSIFICATION_TYPE = U
NORAD_CAT_ID   = 66401
ELEMENT_SET_NO = 999
REV_AT_EPOCH   = 453
BSTAR          = .24806E-2
MEAN_MOTION_DOT = .139614E-2
MEAN_MOTION_DDOT = 0

CCSDS_OMM_VERS = 2.0
CREATION_DATE  = 
ORIGINATOR     = 

OBJECT_NAME    = STARLINK-35644
OBJECT_ID      = 2025-257Y
CENTER_NAME    = EARTH
REF_FRAME      = TEME
TIME_SYSTEM    = UTC
MEAN_ELEMENT_THEORY = SGP/SGP4

EPOCH          = 2025-11-30T12:00:04.000320
MEAN_MOTION    = 15.49233529
ECCENTRICITY   = .0001696
INCLINATION    = 53.1593
RA_OF_ASC_NODE = 322.3063
ARG_OF_PERICENTER = 80.7391
MEAN_ANOMALY   = 251.7932

EPHEMERIS_TYPE = 0
CLASSIFICATION_TYPE = U
NORAD_CAT_ID   = 66402
ELEMENT_SET_NO = 999
REV_AT_EPOCH   = 453
BSTAR          = .2128E-2
MEAN_MOTION_DOT = .119408E-2
MEAN_MOTION_DDOT = 0

CCSDS_OMM_VERS = 2.0
CREATION_DATE  = 
ORIGINATOR     = 

OBJECT_NAME    = STARLINK-35602
OBJECT_ID      = 2025-257Z
CENTER_NAME    = EARTH
REF_FRAME      = TEME
TIME_SYSTEM    = UTC
MEAN_ELEMENT_THEORY = SGP/SGP4

EPOCH          = 2025-11-30T12:00:04.000320
MEAN_MOTION    = 15.49233722
ECCENTRICITY   = .0001752
INCLINATION    = 53.1595
RA_OF_ASC_NODE = 322.2943
ARG_OF_PERICENTER = 80.5825
MEAN_ANOMALY   = 257.6966

EPHEMERIS_TYPE = 0
CLASSIFICATION_TYPE = U
NORAD_CAT_ID   = 66403
ELEMENT_SET_NO = 999
REV_AT_EPOCH   = 453
BSTAR          = .2409E-2
MEAN_MOTION_DOT = .135521E-2
MEAN_MOTION_DDOT = 0

