STARLINK-35671          
1 66392U 25257N   25334.50004630 -.00019284  00000+0 -33965-3 0  9996
2 66392  53.1594 322.3354 0001207  83.7090 235.3935 15.49298366  4528
STARLINK-35652          
1 66393U 25257P   25334.50004630  .00085925  00000+0  15397-2 0  9998
2 66393  53.1594 322.3389 0001669  83.0443 234.1508 15.49240147  4521
STARLINK-35672          
1 66394U 25257Q   25334.50004630  .00097069  00000+0  17362-2 0  9995
2 66394  53.1594 322.3303 0001602  82.7451 238.2936 15.49235070  4529
STARLINK-35681          
1 66395U 25257R   25334.50004630  .00094290  00000+0  16873-2 0  9995
2 66395  53.1595 322.3270 0001684  81.6408 241.3076 15.49235730  4369
STARLINK-35669          
1 66396U 25257S   25334.50004630  .00082405  00000+0  14775-2 0  9990
2 66396  53.1594 322.3223 0001540  81.9676 242.8912 15.49244081  4520
STARLINK-35510          
1 66397U 25257T   25334.50004630 -.00033685  00000+0 -60014-3 0  9997
2 66397  53.1594 322.3189 0000994  77.8102 248.9427 15.49311644  4520
STARLINK-35642          
1 66398U 25257U   25334.50004630 -.00008418  00000+0 -14353-3 0  9999
2 66398  53.1595 322.3143 0001529  80.4258 248.2597 15.49293871  4532
STARLINK-35657          
1 66399U 25257V   25334.50004630  .00107605  00000+0  19212-2 0  9994
2 66399  53.1595 322.3105 0001703  79.0415 251.5747 15.49235473  4532
STARLINK-35667          
1 66400U 25257W   25334.50004630  .00095117  00000+0  17018-2 0  9993
2 66400  53.1594 322.3022 0001695  80.9573 253.4970 15.49236205  4531
STARLINK-35668          
1 66401U 25257X   25334.50004630  .00139614  00000+0  24806-2 0  9998
2 66401  53.1595 322.2980 0001582  81.0602 255.3077 15.49229248  4533
STARLINK-35644          
1 66402U 25257Y   25334.50004630  .00119408  00000+0  21280-2 0  9991
2 66402  53.1593 322.3063 0001696  80.7391 251.7932 15.49233529  4539
STARLINK-35602          
1 66403U 25257Z   25334.50004630  .00135521  00000+0  24090-2 0  9998
2 66403  53.1595 322.2943 0001752  80.5825 257.6966 15.49233722  4538
